{
  "type": "FeatureCollection",
  "features": [
    {
      "type": "Feature",
      "properties": {
        "norad_id": 33765,
        "name": "COSMOS 2251 DEB",
        "group": "cosmos-2251-debris",
        "lat": 36.11605597106068,
        "lon": 171.8062126987779,
        "alt_km": 569.9764880844978,
        "timestamp": "2025-12-19T04:59:48.699195+00:00",
        "meta_object_name": "COSMOS 2251 DEB",
        "meta_object_id": "1993-036N",
        "meta_epoch": "2025-12-18T21:23:51.939168",
        "meta_mean_motion": 15.10331503,
        "meta_eccentricity": 0.00649598,
        "meta_inclination": 74.0077,
        "meta_ra_of_asc_node": 160.382,
        "meta_arg_of_pericenter": 251.4693,
        "meta_mean_anomaly": 225.1901,
        "meta_ephemeris_type": 0,
        "meta_classification_type": "U",
        "meta_norad_cat_id": 33765,
        "meta_element_set_no": 999,
        "meta_rev_at_epoch": 89711,
        "meta_bstar": 0.0014035661,
        "meta_mean_motion_dot": 0.0002424,
        "meta_mean_motion_ddot": 0,
        "tle_line1": "1 33765U 93036N   25352.89157337  .00024240  00000+0  14036-2 0  9992",
        "tle_line2": "2 33765  74.0077 160.3820 0064959 251.4693 225.1901 15.10331503897112"
      },
      "geometry": {
        "type": "Point",
        "coordinates": [
          171.8062126987779,
          36.11605597106068
        ]
      }
    },
    {
      "type": "Feature",
      "properties": {
        "norad_id": 33766,
        "name": "COSMOS 2251 DEB",
        "group": "cosmos-2251-debris",
        "lat": -57.25856156275077,
        "lon": 97.07939508498447,
        "alt_km": 740.3504465849055,
        "timestamp": "2025-12-19T04:59:48.699211+00:00",
        "meta_object_name": "COSMOS 2251 DEB",
        "meta_object_id": "1993-036P",
        "meta_epoch": "2025-12-18T19:14:15.895104",
        "meta_mean_motion": 14.34950842,
        "meta_eccentricity": 0.00644715,
        "meta_inclination": 74.1856,
        "meta_ra_of_asc_node": 123.9712,
        "meta_arg_of_pericenter": 325.6673,
        "meta_mean_anomaly": 34.032,
        "meta_ephemeris_type": 0,
        "meta_classification_type": "U",
        "meta_norad_cat_id": 33766,
        "meta_element_set_no": 999,
        "meta_rev_at_epoch": 87832,
        "meta_bstar": 0.00038283719,
        "meta_mean_motion_dot": 1.09e-05,
        "meta_mean_motion_ddot": 0,
        "tle_line1": "1 33766U 93036P   25352.80157286  .00001090  00000+0  38284-3 0  9997",
        "tle_line2": "2 33766  74.1856 123.9712 0064471 325.6673  34.0320 14.34950842878327"
      },
      "geometry": {
        "type": "Point",
        "coordinates": [
          97.07939508498447,
          -57.25856156275077
        ]
      }
    },
    {
      "type": "Feature",
      "properties": {
        "norad_id": 33768,
        "name": "COSMOS 2251 DEB",
        "group": "cosmos-2251-debris",
        "lat": -59.89893878537239,
        "lon": 58.95038178477549,
        "alt_km": 1183.618143362296,
        "timestamp": "2025-12-19T04:59:48.699223+00:00",
        "meta_object_name": "COSMOS 2251 DEB",
        "meta_object_id": "1993-036R",
        "meta_epoch": "2025-12-18T22:57:37.908000",
        "meta_mean_motion": 13.58460017,
        "meta_eccentricity": 0.03666265,
        "meta_inclination": 74.067,
        "meta_ra_of_asc_node": 209.8344,
        "meta_arg_of_pericenter": 6.2224,
        "meta_mean_anomaly": 91.9207,
        "meta_ephemeris_type": 0,
        "meta_classification_type": "U",
        "meta_norad_cat_id": 33768,
        "meta_element_set_no": 999,
        "meta_rev_at_epoch": 83380,
        "meta_bstar": 0.00026697906,
        "meta_mean_motion_dot": 2.8e-06,
        "meta_mean_motion_ddot": 0,
        "tle_line1": "1 33768U 93036R   25352.95668875  .00000280  00000+0  26698-3 0  9992",
        "tle_line2": "2 33768  74.0670 209.8344 0366626   6.2224  91.9207 13.58460017833803"
      },
      "geometry": {
        "type": "Point",
        "coordinates": [
          58.95038178477549,
          -59.89893878537239
        ]
      }
    },
    {
      "type": "Feature",
      "properties": {
        "norad_id": 33779,
        "name": "COSMOS 2251 DEB",
        "group": "cosmos-2251-debris",
        "lat": 27.952917762513415,
        "lon": 166.91099313679624,
        "alt_km": 668.6460267876773,
        "timestamp": "2025-12-19T04:59:48.699234+00:00",
        "meta_object_name": "COSMOS 2251 DEB",
        "meta_object_id": "1993-036U",
        "meta_epoch": "2025-12-18T21:15:18.405216",
        "meta_mean_motion": 14.7059413,
        "meta_eccentricity": 0.00165291,
        "meta_inclination": 74.044,
        "meta_ra_of_asc_node": 158.8038,
        "meta_arg_of_pericenter": 191.5709,
        "meta_mean_anomaly": 290.726,
        "meta_ephemeris_type": 0,
        "meta_classification_type": "U",
        "meta_norad_cat_id": 33779,
        "meta_element_set_no": 999,
        "meta_rev_at_epoch": 88618,
        "meta_bstar": 0.0017431402,
        "meta_mean_motion_dot": 0.00010604,
        "meta_mean_motion_ddot": 0,
        "tle_line1": "1 33779U 93036U   25352.88562969  .00010604  00000+0  17431-2 0  9998",
        "tle_line2": "2 33779  74.0440 158.8038 0016529 191.5709 290.7260 14.70594130886189"
      },
      "geometry": {
        "type": "Point",
        "coordinates": [
          166.91099313679624,
          27.952917762513415
        ]
      }
    },
    {
      "type": "Feature",
      "properties": {
        "norad_id": 33782,
        "name": "COSMOS 2251 DEB",
        "group": "cosmos-2251-debris",
        "lat": 9.143832942494704,
        "lon": 82.94256461873475,
        "alt_km": 772.2913603644965,
        "timestamp": "2025-12-19T04:59:48.699244+00:00",
        "meta_object_name": "COSMOS 2251 DEB",
        "meta_object_id": "1993-036X",
        "meta_epoch": "2025-12-18T20:08:17.003616",
        "meta_mean_motion": 14.40462969,
        "meta_eccentricity": 0.00209672,
        "meta_inclination": 74.033,
        "meta_ra_of_asc_node": 266.2663,
        "meta_arg_of_pericenter": 330.251,
        "meta_mean_anomaly": 86.8637,
        "meta_ephemeris_type": 0,
        "meta_classification_type": "U",
        "meta_norad_cat_id": 33782,
        "meta_element_set_no": 999,
        "meta_rev_at_epoch": 88214,
        "meta_bstar": 0.00029099627,
        "meta_mean_motion_dot": 9.01e-06,
        "meta_mean_motion_ddot": 0,
        "tle_line1": "1 33782U 93036X   25352.83908569  .00000901  00000+0  29100-3 0  9993",
        "tle_line2": "2 33782  74.0330 266.2663 0020967 330.2510  86.8637 14.40462969882147"
      },
      "geometry": {
        "type": "Point",
        "coordinates": [
          82.94256461873475,
          9.143832942494704
        ]
      }
    },
    {
      "type": "Feature",
      "properties": {
        "norad_id": 33785,
        "name": "COSMOS 2251 DEB",
        "group": "cosmos-2251-debris",
        "lat": 3.2982363964214394,
        "lon": 48.20203769241206,
        "alt_km": 646.0054511959315,
        "timestamp": "2025-12-19T04:59:48.699255+00:00",
        "meta_object_name": "COSMOS 2251 DEB",
        "meta_object_id": "1993-036AA",
        "meta_epoch": "2025-12-18T15:01:04.316160",
        "meta_mean_motion": 14.70614242,
        "meta_eccentricity": 0.00228389,
        "meta_inclination": 73.8674,
        "meta_ra_of_asc_node": 48.3878,
        "meta_arg_of_pericenter": 346.612,
        "meta_mean_anomaly": 174.4535,
        "meta_ephemeris_type": 0,
        "meta_classification_type": "U",
        "meta_norad_cat_id": 33785,
        "meta_element_set_no": 999,
        "meta_rev_at_epoch": 88593,
        "meta_bstar": 0.0014171388,
        "meta_mean_motion_dot": 8.631e-05,
        "meta_mean_motion_ddot": 0,
        "tle_line1": "1 33785U 93036AA  25352.62574440  .00008631  00000+0  14171-2 0  9999",
        "tle_line2": "2 33785  73.8674  48.3878 0022838 346.6120 174.4535 14.70614242885939"
      },
      "geometry": {
        "type": "Point",
        "coordinates": [
          48.20203769241206,
          3.2982363964214394
        ]
      }
    },
    {
      "type": "Feature",
      "properties": {
        "norad_id": 33789,
        "name": "COSMOS 2251 DEB",
        "group": "cosmos-2251-debris",
        "lat": 69.20331602838884,
        "lon": 125.21445753375315,
        "alt_km": 993.9369039088369,
        "timestamp": "2025-12-19T04:59:48.699265+00:00",
        "meta_object_name": "COSMOS 2251 DEB",
        "meta_object_id": "1993-036AE",
        "meta_epoch": "2025-12-18T17:06:20.566656",
        "meta_mean_motion": 13.88808828,
        "meta_eccentricity": 0.02399295,
        "meta_inclination": 74.0645,
        "meta_ra_of_asc_node": 77.2691,
        "meta_arg_of_pericenter": 191.5866,
        "meta_mean_anomaly": 291.2114,
        "meta_ephemeris_type": 0,
        "meta_classification_type": "U",
        "meta_norad_cat_id": 33789,
        "meta_element_set_no": 999,
        "meta_rev_at_epoch": 85178,
        "meta_bstar": 0.0005424512,
        "meta_mean_motion_dot": 8.01e-06,
        "meta_mean_motion_ddot": 0,
        "tle_line1": "1 33789U 93036AE  25352.71273804  .00000801  00000+0  54245-3 0  9991",
        "tle_line2": "2 33789  74.0645  77.2691 0239929 191.5866 291.2114 13.88808828851783"
      },
      "geometry": {
        "type": "Point",
        "coordinates": [
          125.21445753375315,
          69.20331602838884
        ]
      }
    }
  ]
}